NORAD_CAT_ID,OBJECT_NAME,OBJECT_TYPE,EPOCH,MEAN_MOTION,ECCENTRICITY,INCLINATION,RA_OF_ASC_NODE,ARG_OF_PERICENTER,MEAN_ANOMALY,BSTAR,MEAN_MOTION_DOT,MEAN_MOTION_DDOT,TLE_LINE0,TLE_LINE1,TLE_LINE2,SEMIMAJOR_AXIS,PERIOD,APOGEE,PERIGEE,DECAYED
52110.0,STARLINK-3687,PAYLOAD,2022-05-05 22:00:00,15.6021302,0.0001165,53.2171,268.2758,85.4951,71.5477,-0.009398,-0.00714684,0.0,0 STARLINK-3687,1 52110U 22029Y   22125.91667824 -.00714684  00000-0 -93980-2 0  9992,2 52110  53.2171 268.2758 0001165  85.4951  71.5477 15.60213020  3692,6765.178000000001,92.295,387.831,386.255,0.0
52110.0,STARLINK-3687,PAYLOAD,2022-05-06 14:00:01,15.59192679,0.0001225,53.2174,265.0386,68.6124,233.8435,-0.0097617,-0.007139,0.0,0 STARLINK-3687,1 52110U 22029Y   22126.58334491 -.00713900  00000-0 -97617-2 0  9998,2 52110  53.2174 265.0386 0001225  68.6124 233.8435 15.59192679  8853,6768.129,92.355,390.823,389.165,0.0
52110.0,STARLINK-3687,PAYLOAD,2022-05-07 12:00:00,15.57792321,0.0001157,53.2177,260.5959,62.82,345.5757,-0.010349,-0.00717278,0.0,0 STARLINK-3687,1 52110U 22029Y   22127.50001157 -.00717278  00000-0 -10349-1 0  9999,2 52110  53.2177 260.5959 0001157  62.8200 345.5757 15.57792321  9001,6772.185,92.439,394.833,393.266,0.0
52110.0,STARLINK-3687,PAYLOAD,2022-05-07 14:00:01,15.57661371,0.0001333,53.2174,260.1931,61.2658,94.7139,-0.010313,-0.00711783,0.0,0 STARLINK-3687,1 52110U 22029Y   22127.58334491 -.00711783  00000-0 -10313-1 0  9993,2 52110  53.2174 260.1931 0001333  61.2658  94.7139 15.57661371  3708,6772.564,92.446,395.332,393.527,0.0
52110.0,STARLINK-3687,PAYLOAD,2022-05-07 22:00:00,15.57154422,0.0001225,53.2171,258.5805,86.4586,139.4686,-0.010588,-0.00716479,0.0,0 STARLINK-3687,1 52110U 22029Y   22127.91667824 -.00716479  00000-0 -10588-1 0  9990,2 52110  53.2171 258.5805 0001225  86.4586 139.4686 15.57154422  3703,6774.034000000002,92.476,396.729,395.069,0.0
52110.0,STARLINK-3687,PAYLOAD,2022-05-08 14:00:01,15.56133795,0.0001291,53.2174,255.3587,51.7493,312.2372,-0.010976,-0.00715005,0.0,0 STARLINK-3687,1 52110U 22029Y   22128.58334491 -.00715005  00000-0 -10976-1 0  9990,2 52110  53.2174 255.3587 0001291  51.7493 312.2372 15.56133795  3693,6776.996,92.537,399.736,397.986,0.0
52110.0,STARLINK-3687,PAYLOAD,2022-05-08 20:00:01,15.55749614,0.0001063,53.2172,254.1525,78.7177,246.4088,-0.011068,-0.0071106,0.0,0 STARLINK-3687,1 52110U 22029Y   22128.83334491 -.00711060  00000-0 -11068-1 0  9998,2 52110  53.2172 254.1525 0001063  78.7177 246.4088 15.55749614  9202,6778.111,92.56,400.697,399.256,0.0
52110.0,STARLINK-3687,PAYLOAD,2022-05-08 22:00:00,15.55623342,0.0001091,53.2171,253.7498,70.9387,1.1581,-0.011163,-0.00713578,0.0,0 STARLINK-3687,1 52110U 22029Y   22128.91667824 -.00713578  00000-0 -11163-1 0  9998,2 52110  53.2171 253.7498 0001091  70.9387   1.1581 15.55623342  3705,6778.478,92.567,401.083,399.604,0.0
52110.0,STARLINK-3687,PAYLOAD,2022-05-09 14:00:01,15.54601275,0.0001421,53.2172,250.5352,60.1811,146.3642,-0.011547,-0.00711003,0.0,0 STARLINK-3687,1 52110U 22029Y   22129.58335648 -.00711003  00000-0 -11547-1 0  9995,2 52110  53.2172 250.5352 0001421  60.1811 146.3642 15.54601275  3755,6781.449000000001,92.628,404.278,402.35,0.0
52110.0,STARLINK-3687,PAYLOAD,2022-05-09 20:00:01,15.54219363,0.0001258,53.2171,249.3317,72.2467,93.9943,-0.011707,-0.00710773,0.0,0 STARLINK-3687,1 52110U 22029Y   22129.83334491 -.00710773  00000-0 -11707-1 0  9999,2 52110  53.2171 249.3317 0001258  72.2467  93.9943 15.54219363  9367,6782.56,92.651,405.278,403.572,0.0
52110.0,STARLINK-3687,PAYLOAD,2022-05-09 22:00:00,15.54094733,0.0001184,53.2172,248.9298,79.955,192.7963,-0.01186,-0.00716254,0.0,0 STARLINK-3687,1 52110U 22029Y   22129.91667824 -.00716254  00000-0 -11860-1 0  9997,2 52110  53.2172 248.9298 0001184  79.9550 192.7963 15.54094733  3700,6782.922,92.658,405.591,403.984,0.0
52110.0,STARLINK-3687,PAYLOAD,2022-05-10 14:00:01,15.53074325,0.0001299,53.2175,245.7231,52.3506,351.1062,-0.012289,-0.0071508,0.0,0 STARLINK-3687,1 52110U 22029Y   22130.58334491 -.00715080  00000-0 -12289-1 0  9995,2 52110  53.2175 245.7231 0001299  52.3506 351.1062 15.53074325  3691,6785.893,92.719,408.64,406.877,0.0
52110.0,STARLINK-3687,PAYLOAD,2022-05-10 18:00:00,15.528120499999998,0.0001261,53.2173,244.9232,67.969,187.783,-0.012175,-0.00702808,0.0,0 STARLINK-3687,1 52110U 22029Y   22130.75001157 -.00702808  00000-0 -12175-1 0  9992,2 52110  53.2173 244.9232 0001261  67.9690 187.7830 15.52812050  9502,6786.656999999997,92.735,409.378,407.666,0.0
52110.0,STARLINK-3687,PAYLOAD,2022-05-11 20:00:01,15.5116112,0.0001349,53.217,239.7232,63.399,128.5247,-0.013136,-0.0072251999999999,0.0,0 STARLINK-3687,1 52110U 22029Y   22131.83334491 -.00722520  00000-0 -13136-1 0  9993,2 52110  53.2170 239.7232 0001349  63.3990 128.5247 15.51161120  9678,6791.472,92.834,414.253,412.421,0.0
52110.0,STARLINK-3687,PAYLOAD,2022-05-11 22:00:00,15.51034321,0.0001202,53.2172,239.3232,71.3019,226.2134,-0.013226,-0.00724024,0.0,0 STARLINK-3687,1 52110U 22029Y   22131.91667824 -.00724024  00000-0 -13226-1 0  9992,2 52110  53.2172 239.3232 0001202  71.3019 226.2134 15.51034321  1300,6791.842,92.841,414.523,412.891,0.0
52110.0,STARLINK-3687,PAYLOAD,2022-05-12 14:00:01,15.49908266,0.0001533,53.2173,236.1331,44.8006,16.0757,-0.00067606,-0.00038665,0.0,0 STARLINK-3687,1 52110U 22029Y   22132.58334491 -.00038665  00000-0 -67606-3 0  9999,2 52110  53.2173 236.1331 0001533  44.8006  16.0757 15.49908266  1305,6795.130999999999,92.909,418.038,415.954,0.0
52110.0,STARLINK-3687,PAYLOAD,2022-05-12 20:00:01,15.49887321,0.0001230999999999,53.2172,234.938,63.1078,313.4637,-3.712e-05,-2.558e-05,0.0,0 STARLINK-3687,1 52110U 22029Y   22132.83334491 -.00002558  00000-0 -37120-4 0  9998,2 52110  53.2172 234.9380 0001231  63.1078 313.4637 15.49887321  9837,6795.191999999999,92.91,417.894,416.221,0.0
52110.0,STARLINK-3687,PAYLOAD,2022-05-12 22:00:00,15.49886861,0.0001262,53.2172,234.5391,61.8954,59.9056,-3.9683e-05,-2.703e-05,0.0,0 STARLINK-3687,1 52110U 22029Y   22132.91667824 -.00002703  00000-0 -39683-4 0  9994,2 52110  53.2172 234.5391 0001262  61.8954  59.9056 15.49886861  1306,6795.194,92.91,417.916,416.201,0.0
52110.0,STARLINK-3687,PAYLOAD,2022-05-13 04:00:00,15.49936035,0.0001440999999999,53.2134,233.3513,58.2756,19.3653,-0.00040372,-0.00023338,0.0,0 STARLINK-3687,1 52110U 22029Y   22133.16667824 -.00023338  00000-0 -40372-3 0  9995,2 52110  53.2134 233.3513 0001441  58.2756  19.3653 15.49936035  9889,6795.05,92.907,417.894,415.936,0.0
52110.0,STARLINK-3687,PAYLOAD,2022-05-13 14:00:01,15.4988229,0.0001754999999999,53.2137,231.3618,55.1663,188.67,0.00013667,7.312e-05,0.0,0 STARLINK-3687,1 52110U 22029Y   22133.58334491  .00007312  00000-0  13667-3 0  9991,2 52110  53.2137 231.3618 0001755  55.1663 188.6700 15.49882290  1302,6795.206999999999,92.91,418.265,415.88,0.0
52110.0,STARLINK-3687,PAYLOAD,2022-05-13 22:00:00,15.49918742,0.0001585999999999,53.2136,229.7678,51.9264,252.8208,-0.0021089,-0.00118495,0.0,0 STARLINK-3687,1 52110U 22029Y   22133.91667824 -.00118495  00000-0 -21089-2 0  9990,2 52110  53.2136 229.7678 0001586  51.9264 252.8208 15.49918742  9993,6795.101,92.908,418.043,415.888,0.0
52110.0,STARLINK-3687,PAYLOAD,2022-05-14 06:00:00,15.49839453,0.0001477,53.2138,228.1737,55.7295,309.9205,0.00061871,0.00034763,0.0,0 STARLINK-3687,1 52110U 22029Y   22134.25001157  .00034763  00000-0  61871-3 0  9996,2 52110  53.2138 228.1737 0001477  55.7295 309.9205 15.49839453 10050,6795.331999999999,92.913,418.201,416.194,0.0
52110.0,STARLINK-3687,PAYLOAD,2022-05-14 14:00:01,15.49860345,0.0001682,53.2137,226.5828,48.6597,17.8765,0.00029312,0.00016205,0.0,0 STARLINK-3687,1 52110U 22029Y   22134.58334491  .00016205  00000-0  29312-3 0  9997,2 52110  53.2137 226.5828 0001682  48.6597  17.8765 15.49860345  1304,6795.271,92.912,418.279,415.99300000000005,0.0
52110.0,STARLINK-3687,PAYLOAD,2022-05-14 22:00:00,15.49888667,0.0001294,53.217,224.9808,46.9578,80.3278,-6.0891e-05,-3.906e-05,0.0,0 STARLINK-3687,1 52110U 22029Y   22134.91667824 -.00003906  00000-0 -60891-4 0  9997,2 52110  53.2170 224.9808 0001294  46.9578  80.3278 15.49888667 10154,6795.188,92.91,417.9330000000001,416.174,0.0
52110.0,STARLINK-3687,PAYLOAD,2022-05-15 06:00:00,15.49890244,0.000152,53.2133,223.3949,56.2284,132.1078,0.00058256,0.00032757,0.0,0 STARLINK-3687,1 52110U 22029Y   22135.25001157  .00032757  00000-0  58256-3 0  9991,2 52110  53.2133 223.3949 0001520  56.2284 132.1078 15.49890244 10206,6795.184,92.91,418.082,416.016,0.0
52110.0,STARLINK-3687,PAYLOAD,2022-05-15 14:00:01,15.4989216,0.0001705,53.2132,221.8037,47.7693,201.5621,0.00042831,0.00023938,0.0,0 STARLINK-3687,1 52110U 22029Y   22135.58335648  .00023938  00000-0  42831-3 0  9995,2 52110  53.2132 221.8037 0001705  47.7693 201.5621 15.49892160  1305,6795.178000000001,92.91,418.202,415.885,0.0
52110.0,STARLINK-3687,PAYLOAD,2022-05-15 22:00:00,15.49947685,0.0001508,53.2132,220.2082,49.4441,260.7686,-0.00054868,-0.00031536,0.0,0 STARLINK-3687,1 52110U 22029Y   22135.91667824 -.00031536  00000-0 -54868-3 0  9994,2 52110  53.2132 220.2082 0001508  49.4441 260.7686 15.49947685  1300,6795.016,92.906,417.906,415.856,0.0
52110.0,STARLINK-3687,PAYLOAD,2022-05-16 04:00:00,15.50097711,0.0001173,53.2146,219.0091,62.2768,203.6298,-0.0089386,-0.00481396,0.0,0 STARLINK-3687,1 52110U 22029Y   22136.16667824 -.00481396  00000-0 -89386-2 0  9997,2 52110  53.2146 219.0091 0001173  62.2768 203.6298 15.50097711 10341,6794.578,92.897,417.24,415.646,0.0
52110.0,STARLINK-3687,PAYLOAD,2022-05-16 14:00:01,15.496114000000002,0.0001737,53.2168,217.0155,42.5866,29.4357,-0.0044295,-0.00241907,0.0,0 STARLINK-3687,1 52110U 22029Y   22136.58334491 -.00241907  00000-0 -44295-2 0  9996,2 52110  53.2168 217.0155 0001737  42.5866  29.4357 15.49611400  1301,6795.999,92.927,419.044,416.684,0.0
